ONEWEB-0158             
1 48054U 21025N   25111.79003943  .00000360  00000+0  95008-3 0  9999
2 48054  87.8995  43.9467 0002205  76.5353 283.6021 13.13472532198315
ONEWEB-0157             
1 48055U 21025P   25111.73925325  .00000109  00000+0  26315-3 0  9997
2 48055  87.8990  43.9693 0001744  95.5812 264.5516 13.13467065198244
ONEWEB-0162             
1 48056U 21025Q   25111.79158652  .00000405  00000+0  10733-2 0  9990
2 48056  87.9000  43.9550 0002099  75.1443 284.9918 13.13471765198220
ONEWEB-0155             
1 48057U 21025R   25112.17939205  .00000231  00000+0  59748-3 0  9992
2 48057  87.8972  43.8903 0001764  82.4048 277.7282 13.13469932198428
ONEWEB-0149             
1 48058U 21025S   25112.35377508  .00000051  00000+0  10387-3 0  9991
2 48058  87.8979  43.8505 0002071  88.7972 271.3394 13.13470179198251
ONEWEB-0148             
1 48059U 21025T   25111.78325773 -.00000123  00000+0 -37073-3 0  9998
2 48059  87.8987  43.9834 0002451  91.9367 268.2043 13.13471080198295
ONEWEB-0160             
1 48060U 21025U   25112.18109473  .00000348  00000+0  91869-3 0  9992
2 48060  87.8988  43.9012 0002357  63.0900 297.0469 13.13469407198296
ONEWEB-0163             
1 48061U 21025V   25111.78495157  .00000219  00000+0  56405-3 0  9999
2 48061  87.8979  43.9639 0001781  87.8405 272.2928 13.13473439198369
